{"type": "FeatureCollection", "features": [{"type": "Feature", "properties": {"driver_id": "D1", "order_id": "O1", "leg": "driver_to_store"}, "geometry": {"type": "LineString", "coordinates": [[-66.6431, 45.9636], [-66.6665166, 45.9441943]]}}, {"type": "Feature", "properties": {"driver_id": "D1", "order_id": "O1", "leg": "store_to_customer"}, "geometry": {"type": "LineString", "coordinates": [[-66.6665166, 45.9441943], [-66.65, 45.96]]}}, {"type": "Feature", "properties": {"driver_id": "D1", "order_id": "O2", "leg": "driver_to_store"}, "geometry": {"type": "LineString", "coordinates": [[-66.6431, 45.9636], [-64.1988976, 45.81653559999999]]}}, {"type": "Feature", "properties": {"driver_id": "D1", "order_id": "O2", "leg": "store_to_customer"}, "geometry": {"type": "LineString", "coordinates": [[-64.1988976, 45.81653559999999], [-64.78, 46.1]]}}, {"type": "Feature", "properties": {"driver_id": "D1", "order_id": "O3", "leg": "driver_to_store"}, "geometry": {"type": "LineString", "coordinates": [[-66.6431, 45.9636], [-66.0923755, 45.2534815]]}}, {"type": "Feature", "properties": {"driver_id": "D1", "order_id": "O3", "leg": "store_to_customer"}, "geometry": {"type": "LineString", "coordinates": [[-66.0923755, 45.2534815], [-66.06, 45.28]]}}, {"type": "Feature", "properties": {"driver_id": "D1", "order_id": "O4", "leg": "driver_to_store"}, "geometry": {"type": "LineString", "coordinates": [[-66.6431, 45.9636], [-66.6665166, 45.9441943]]}}, {"type": "Feature", "properties": {"driver_id": "D1", "order_id": "O4", "leg": "store_to_customer"}, "geometry": {"type": "LineString", "coordinates": [[-66.6665166, 45.9441943], [-66.65, 45.95]]}}, {"type": "Feature", "properties": {"driver_id": "D1", "order_id": "O5", "leg": "driver_to_store"}, "geometry": {"type": "LineString", "coordinates": [[-66.6431, 45.9636], [-64.1988976, 45.81653559999999]]}}, {"type": "Feature", "properties": {"driver_id": "D1", "order_id": "O5", "leg": "store_to_customer"}, "geometry": {"type": "LineString", "coordinates": [[-64.1988976, 45.81653559999999], [-64.8, 46.08]]}}, {"type": "Feature", "properties": {"driver_id": "D1", "order_id": "O6", "leg": "driver_to_store"}, "geometry": {"type": "LineString", "coordinates": [[-66.6431, 45.9636], [-66.0923755, 45.2534815]]}}, {"type": "Feature", "properties": {"driver_id": "D1", "order_id": "O6", "leg": "store_to_customer"}, "geometry": {"type": "LineString", "coordinates": [[-66.0923755, 45.2534815], [-66.07, 45.27]]}}, {"type": "Feature", "properties": {"driver_id": "D1", "order_id": "O7", "leg": "driver_to_store"}, "geometry": {"type": "LineString", "coordinates": [[-66.6431, 45.9636], [-66.6665166, 45.9441943]]}}, {"type": "Feature", "properties": {"driver_id": "D1", "order_id": "O7", "leg": "store_to_customer"}, "geometry": {"type": "LineString", "coordinates": [[-66.6665166, 45.9441943], [-66.64, 45.97]]}}, {"type": "Feature", "properties": {"driver_id": "D1", "order_id": "O8", "leg": "driver_to_store"}, "geometry": {"type": "LineString", "coordinates": [[-66.6431, 45.9636], [-64.1988976, 45.81653559999999]]}}, {"type": "Feature", "properties": {"driver_id": "D1", "order_id": "O8", "leg": "store_to_customer"}, "geometry": {"type": "LineString", "coordinates": [[-64.1988976, 45.81653559999999], [-64.76, 46.09]]}}]}